NORAD_CAT_ID,OBJECT_NAME,OBJECT_TYPE,EPOCH,MEAN_MOTION,ECCENTRICITY,INCLINATION,RA_OF_ASC_NODE,ARG_OF_PERICENTER,MEAN_ANOMALY,BSTAR,MEAN_MOTION_DOT,MEAN_MOTION_DDOT,TLE_LINE0,TLE_LINE1,TLE_LINE2,SEMIMAJOR_AXIS,PERIOD,APOGEE,PERIGEE,DECAYED
53637.0,STARLINK-4396,PAYLOAD,2022-11-06 14:00:01,15.49866138,0.0001628,53.2126,300.1608,60.5717,356.6213,0.0011438,0.00064963,0.0,0 STARLINK-4396,1 53637U 22104BB  22310.58334491  .00064963  00000-0  11438-2 0  9995,2 53637  53.2126 300.1608 0001628  60.5717 356.6213 15.49866138 11117,6795.254,92.911,418.226,416.013,0.0
53637.0,STARLINK-4396,PAYLOAD,2022-11-07 06:00:00,15.499347,0.0001647,53.2134,296.9745,61.4956,117.5815,0.0001466,7.891e-05,0.0,0 STARLINK-4396,1 53637U 22104BB  22311.25001157  .00007891  00000-0  14660-3 0  9998,2 53637  53.2134 296.9745 0001647  61.4956 117.5815 15.49934700 11210,6795.054,92.907,418.038,415.8,0.0
53637.0,STARLINK-4396,PAYLOAD,2022-11-07 22:00:00,15.49914769,0.0001301,53.2132,293.7859,68.3087,232.752,0.00021912,0.00012017,0.0,0 STARLINK-4396,1 53637U 22104BB  22311.91667824  .00012017  00000-0  21912-3 0  9994,2 53637  53.2132 293.7859 0001301  68.3087 232.7520 15.49914769  1302,6795.111999999999,92.908,417.861,416.093,0.0
53637.0,STARLINK-4396,PAYLOAD,2022-11-08 10:00:01,15.49868454,0.0001217,53.213,291.3981,51.2237,161.362,0.0013947,0.00079466,0.0,0 STARLINK-4396,1 53637U 22104BB  22312.41668981  .00079466  00000-0  13947-2 0  9994,2 53637  53.2130 291.3981 0001217  51.2237 161.3620 15.49868454 11391,6795.248000000001,92.911,417.94,416.286,0.0
53637.0,STARLINK-4396,PAYLOAD,2022-11-08 14:00:01,15.49914129,0.0001183,53.2129,290.6005,55.2541,7.7147,-8.0067e-05,-4.997e-05,0.0,0 STARLINK-4396,1 53637U 22104BB  22312.58334491 -.00004997  00000-0 -80067-4 0  9996,2 53637  53.2129 290.6005 0001183  55.2541   7.7147 15.49914129  1300,6795.114000000001,92.908,417.783,416.175,0.0
53637.0,STARLINK-4396,PAYLOAD,2022-11-08 22:00:00,15.49941611,0.0001183,53.2134,289.006,67.4245,56.4852,-0.00068777,-0.00039368,0.0,0 STARLINK-4396,1 53637U 22104BB  22312.91667824 -.00039368  00000-0 -68777-3 0  9995,2 53637  53.2134 289.0060 0001183  67.4245  56.4852 15.49941611 11474,6795.034000000002,92.907,417.703,416.095,0.0
53637.0,STARLINK-4396,PAYLOAD,2022-11-09 06:00:00,15.49897109,0.0001288,53.2139,287.4145,57.2607,127.622,-0.0017870999999999,-0.00100629,0.0,0 STARLINK-4396,1 53637U 22104BB  22313.25001157 -.00100629  00000-0 -17871-2 0  9991,2 53637  53.2139 287.4145 0001288  57.2607 127.6220 15.49897109 11528,6795.1640000000025,92.909,417.904,416.154,0.0
53637.0,STARLINK-4396,PAYLOAD,2022-11-09 14:00:01,15.50011092,0.0001193,53.2152,285.8196,54.6479,191.0871,-0.01103,-0.00584442,0.0,0 STARLINK-4396,1 53637U 22104BB  22313.58334491 -.00584442  00000-0 -11030-1 0  9996,2 53637  53.2152 285.8196 0001193  54.6479 191.0871 15.50011092  1307,6794.831,92.903,417.506,415.885,0.0
53637.0,STARLINK-4396,PAYLOAD,2022-11-09 22:00:01,15.49651857,0.0001225,53.2165,284.2237,56.7922,249.8478,-0.014631,-0.00759433,0.0,0 STARLINK-4396,1 53637U 22104BB  22313.91668981 -.00759433  00000-0 -14631-1 0  9991,2 53637  53.2165 284.2237 0001225  56.7922 249.8478 15.49651857 11620,6795.880999999999,92.924,418.578,416.913,0.0
53637.0,STARLINK-4396,PAYLOAD,2022-11-10 06:00:00,15.49129338,0.0001228,53.2171,282.6337,62.7998,304.0831,-0.023292,-0.01175162,0.0,0 STARLINK-4396,1 53637U 22104BB  22314.25001157 -.01175162  00000-0 -23292-1 0  9990,2 53637  53.2171 282.6337 0001228  62.7998 304.0831 15.49129338 11679,6797.409000000002,92.955,420.109,418.439,0.0
53637.0,STARLINK-4396,PAYLOAD,2022-11-10 14:00:01,15.48302134,0.0001317,53.2169,281.0424,50.8894,15.4822,-0.023615,-0.01158709,0.0,0 STARLINK-4396,1 53637U 22104BB  22314.58334491 -.01158709  00000-0 -23615-1 0  9993,2 53637  53.2169 281.0424 0001317  50.8894  15.4822 15.48302134  1306,6799.83,93.005,422.59,420.799,0.0
53637.0,STARLINK-4396,PAYLOAD,2022-11-10 22:00:00,15.47496114,0.0001473,53.2169,279.4532,49.022,75.8465,-0.024463,-0.01166186,0.0,0 STARLINK-4396,1 53637U 22104BB  22314.91667824 -.01166186  00000-0 -24463-1 0  9999,2 53637  53.2169 279.4532 0001473  49.0220  75.8465 15.47496114  1307,6802.191,93.054,425.0580000000001,423.054,0.0
53637.0,STARLINK-4396,PAYLOAD,2022-11-11 08:00:01,15.46465028,0.0001291999999999,53.2172,277.4728,62.6809,223.9464,-0.024933,-0.01148217,0.0,0 STARLINK-4396,1 53637U 22104BB  22315.33334491 -.01148217  00000-0 -24933-1 0  9994,2 53637  53.2172 277.4728 0001292  62.6809 223.9464 15.46465028 11843,6805.214,93.116,427.958,426.2,0.0
53637.0,STARLINK-4396,PAYLOAD,2022-11-11 14:00:01,15.45873033,0.0001344,53.2167,276.2834,56.8497,182.0878,-0.026089,-0.01174574,0.0,0 STARLINK-4396,1 53637U 22104BB  22315.58334491 -.01174574  00000-0 -26089-1 0  9990,2 53637  53.2167 276.2834 0001344  56.8497 182.0878 15.45873033  1300,6806.951,93.151,429.731,427.901,0.0
53637.0,STARLINK-4396,PAYLOAD,2022-11-11 22:00:00,15.45062244,0.0001281999999999,53.2167,274.7001,54.4716,240.0318,-0.026844,-0.01175156,0.0,0 STARLINK-4396,1 53637U 22104BB  22315.91667824 -.01175156  00000-0 -26844-1 0  9992,2 53637  53.2167 274.7001 0001282  54.4716 240.0318 15.45062244  1306,6809.331999999999,93.2,432.07,430.324,0.0
53637.0,STARLINK-4396,PAYLOAD,2022-11-12 06:00:00,15.44281255,0.0001072,53.217,273.1218,67.8904,281.1857,-0.028717,-0.01219465,0.0,0 STARLINK-4396,1 53637U 22104BB  22316.25001157 -.01219465  00000-0 -28717-1 0  9994,2 53637  53.2170 273.1218 0001072  67.8904 281.1857 15.44281255 11980,6811.628000000002,93.247,434.223,432.763,0.0
53637.0,STARLINK-4396,PAYLOAD,2022-11-12 14:00:01,15.43409629,0.0001222,53.2171,271.5414,55.51,347.2101,-0.027564,-0.01143292,0.0,0 STARLINK-4396,1 53637U 22104BB  22316.58334491 -.01143292  00000-0 -27564-1 0  9993,2 53637  53.2171 271.5414 0001222  55.5100 347.2101 15.43409629  1307,6814.191999999999,93.3,436.89,435.224,0.0
53637.0,STARLINK-4396,PAYLOAD,2022-11-12 22:00:00,15.42622287,0.000149,53.2166,269.9644,46.2771,49.0645,-0.029251,-0.01178057,0.0,0 STARLINK-4396,1 53637U 22104BB  22316.91667824 -.01178057  00000-0 -29251-1 0  9991,2 53637  53.2166 269.9644 0001490  46.2771  49.0645 15.42622287 12099,6816.51,93.348,439.391,437.36,0.0
53637.0,STARLINK-4396,PAYLOAD,2022-11-13 14:00:01,15.40997182,0.0001512,53.2169,266.8179,56.9908,140.685,-0.030973,-0.01180799,0.0,0 STARLINK-4396,1 53637U 22104BB  22317.58334491 -.01180799  00000-0 -30973-1 0  9995,2 53637  53.2169 266.8179 0001512  56.9908 140.6850 15.40997182  1301,6821.302,93.446,444.198,442.136,0.0
53637.0,STARLINK-4396,PAYLOAD,2022-11-13 22:00:00,15.40175844,0.0001368,53.2166,265.2463,66.255,181.1259,-0.0315,-0.01169477,0.0,0 STARLINK-4396,1 53637U 22104BB  22317.91667824 -.01169477  00000-0 -31500-1 0  9998,2 53637  53.2166 265.2463 0001368  66.2550 181.1259 15.40175844  1309,6823.727,93.496,446.525,444.658,0.0
53637.0,STARLINK-4396,PAYLOAD,2022-11-14 14:00:01,15.38527762,0.000123,53.2175,262.1105,56.0443,287.8166,-0.032453,-0.01143346,0.0,0 STARLINK-4396,1 53637U 22104BB  22318.58334491 -.01143346  00000-0 -32453-1 0  9998,2 53637  53.2175 262.1105 0001230  56.0443 287.8166 15.38527762  1302,6828.599,93.596,451.304,449.624,0.0
53637.0,STARLINK-4396,PAYLOAD,2022-11-14 22:00:00,15.37713197,0.0001298,53.2175,260.5454,54.7025,335.9263,-0.033261,-0.01141142,0.0,0 STARLINK-4396,1 53637U 22104BB  22318.91667824 -.01141142  00000-0 -33261-1 0  9994,2 53637  53.2175 260.5454 0001298  54.7025 335.9263 15.37713197  1307,6831.01,93.646,453.762,451.989,0.0
53637.0,STARLINK-4396,PAYLOAD,2022-11-15 14:00:01,15.36083828,0.0001585,53.2176,257.4212,45.148,76.0835,-0.034969,-0.01138151,0.0,0 STARLINK-4396,1 53637U 22104BB  22319.58334491 -.01138151  00000-0 -34969-1 0  9991,2 53637  53.2176 257.4212 0001585  45.1480  76.0835 15.36083828  1301,6835.84,93.745,458.789,456.622,0.0
53637.0,STARLINK-4396,PAYLOAD,2022-11-15 16:00:00,15.35879368,0.0001522,53.2174,257.0308,51.8273,170.4548,-0.035131,-0.01136066,0.0,0 STARLINK-4396,1 53637U 22104BB  22319.66667824 -.01136066  00000-0 -35131-1 0  9994,2 53637  53.2174 257.0308 0001522  51.8273 170.4548 15.35879368 12512,6836.446999999999,93.757,459.352,457.271,0.0
53637.0,STARLINK-4396,PAYLOAD,2022-11-15 22:00:00,15.35269971,0.0001634,53.2177,255.8621,49.475,115.5904,-0.035883,-0.01137676,0.0,0 STARLINK-4396,1 53637U 22104BB  22319.91667824 -.01137676  00000-0 -35883-1 0  9994,2 53637  53.2177 255.8621 0001634  49.4750 115.5904 15.35269971  1300,6838.255999999999,93.795,461.23800000000006,459.003,0.0
53637.0,STARLINK-4396,PAYLOAD,2022-11-16 14:00:01,15.33643188,0.0001488,53.2176,252.7492,52.71,197.1538,-0.037829,-0.01138384,0.0,0 STARLINK-4396,1 53637U 22104BB  22320.58335648 -.01138384  00000-0 -37829-1 0  9994,2 53637  53.2176 252.7492 0001488  52.7100 197.1538 15.33643188 12657,6843.090999999999,93.894,465.974,463.937,0.0
53637.0,STARLINK-4396,PAYLOAD,2022-11-16 22:00:08,15.32829206,0.0001446,53.2177,251.1957,52.4168,238.7307,-0.038806,-0.01137994,0.0,0 STARLINK-4396,1 53637U 22104BB  22320.91675926 -.01137994  00000-0 -38806-1 0  9999,2 53637  53.2177 251.1957 0001446  52.4168 238.7307 15.32829206  1304,6845.513000000001,93.944,468.36800000000005,466.388,0.0
53637.0,STARLINK-4396,PAYLOAD,2022-11-17 14:00:01,15.31205835,0.0001355,53.2169,248.0951,50.1005,319.4655,-0.041083,-0.01144051,0.0,0 STARLINK-4396,1 53637U 22104BB  22321.58334491 -.01144051  00000-0 -41083-1 0  9995,2 53637  53.2169 248.0951 0001355  50.1005 319.4655 15.31205835  1306,6850.35,94.044,473.144,471.287,0.0
53637.0,STARLINK-4396,PAYLOAD,2022-11-17 22:00:00,15.30422817,0.000135,53.2168,246.5476,57.3627,350.1546,-0.043739,-0.01200796,0.0,0 STARLINK-4396,1 53637U 22104BB  22321.91667824 -.01200796  00000-0 -43739-1 0  9990,2 53637  53.2168 246.5476 0001350  57.3627 350.1546 15.30422817  1305,6852.687,94.092,475.477,473.627,0.0
